{
  "type": "FeatureCollection",
  "features": [
    {
      "type": "Feature",
      "properties": {
        "norad_id": 30342,
        "name": "FENGYUN 1C DEB",
        "group": "fengyun-1c-debris",
        "lat": -66.27373718644908,
        "lon": -153.59848016024844,
        "alt_km": 1080.3655169496733,
        "timestamp": "2025-12-27T14:26:30.797453+00:00",
        "meta_object_name": "FENGYUN 1C DEB",
        "meta_object_id": "1999-025ABD",
        "meta_epoch": "2025-12-27T01:25:36.857568",
        "meta_mean_motion": 13.80064288,
        "meta_eccentricity": 0.01682454,
        "meta_inclination": 100.1959,
        "meta_ra_of_asc_node": 181.6465,
        "meta_arg_of_pericenter": 85.888,
        "meta_mean_anomaly": 33.7472,
        "meta_ephemeris_type": 0,
        "meta_classification_type": "U",
        "meta_norad_cat_id": 30342,
        "meta_element_set_no": 999,
        "meta_rev_at_epoch": 95086,
        "meta_bstar": 0.00065281336,
        "meta_mean_motion_dot": 7.05e-06,
        "meta_mean_motion_ddot": 0,
        "tle_line1": "1 30342U 99025ABD 25361.05945437  .00000705  00000+0  65281-3 0  9997",
        "tle_line2": "2 30342 100.1959 181.6465 0168245  85.8880  33.7472 13.80064288950867"
      },
      "geometry": {
        "type": "Point",
        "coordinates": [
          -153.59848016024844,
          -66.27373718644908
        ]
      }
    },
    {
      "type": "Feature",
      "properties": {
        "norad_id": 30344,
        "name": "FENGYUN 1C DEB",
        "group": "fengyun-1c-debris",
        "lat": -73.75408910645082,
        "lon": -127.79906125208959,
        "alt_km": 730.9088794362742,
        "timestamp": "2025-12-27T14:26:30.797463+00:00",
        "meta_object_name": "FENGYUN 1C DEB",
        "meta_object_id": "1999-025ABF",
        "meta_epoch": "2025-12-27T05:14:55.752576",
        "meta_mean_motion": 14.5201919,
        "meta_eccentricity": 0.00064659,
        "meta_inclination": 98.8195,
        "meta_ra_of_asc_node": 83.9944,
        "meta_arg_of_pericenter": 78.4444,
        "meta_mean_anomaly": 336.7051,
        "meta_ephemeris_type": 0,
        "meta_classification_type": "U",
        "meta_norad_cat_id": 30344,
        "meta_element_set_no": 999,
        "meta_rev_at_epoch": 98287,
        "meta_bstar": 0.0025885726,
        "meta_mean_motion_dot": 0.0001043,
        "meta_mean_motion_ddot": 0,
        "tle_line1": "1 30344U 99025ABF 25361.21870084  .00010430  00000+0  25886-2 0  9994",
        "tle_line2": "2 30344  98.8195  83.9944 0006465  78.4444 336.7051 14.52019190982876"
      },
      "geometry": {
        "type": "Point",
        "coordinates": [
          -127.79906125208959,
          -73.75408910645082
        ]
      }
    },
    {
      "type": "Feature",
      "properties": {
        "norad_id": 30345,
        "name": "FENGYUN 1C DEB",
        "group": "fengyun-1c-debris",
        "lat": 58.17572524824714,
        "lon": -103.71255958109086,
        "alt_km": 744.4784200925851,
        "timestamp": "2025-12-27T14:26:30.797473+00:00",
        "meta_object_name": "FENGYUN 1C DEB",
        "meta_object_id": "1999-025ABG",
        "meta_epoch": "2025-12-27T03:53:24.759168",
        "meta_mean_motion": 14.41844652,
        "meta_eccentricity": 0.00182039,
        "meta_inclination": 98.9195,
        "meta_ra_of_asc_node": 61.1703,
        "meta_arg_of_pericenter": 201.978,
        "meta_mean_anomaly": 158.0629,
        "meta_ephemeris_type": 0,
        "meta_classification_type": "U",
        "meta_norad_cat_id": 30345,
        "meta_element_set_no": 999,
        "meta_rev_at_epoch": 97981,
        "meta_bstar": 0.0024099512,
        "meta_mean_motion_dot": 7.857e-05,
        "meta_mean_motion_ddot": 0,
        "tle_line1": "1 30345U 99025ABG 25361.16209212  .00007857  00000+0  24100-2 0  9995",
        "tle_line2": "2 30345  98.9195  61.1703 0018203 201.9780 158.0629 14.41844652979811"
      },
      "geometry": {
        "type": "Point",
        "coordinates": [
          -103.71255958109086,
          58.17572524824714
        ]
      }
    },
    {
      "type": "Feature",
      "properties": {
        "norad_id": 30346,
        "name": "FENGYUN 1C DEB",
        "group": "fengyun-1c-debris",
        "lat": 42.35133226859123,
        "lon": -73.29647676171817,
        "alt_km": 811.2079792536488,
        "timestamp": "2025-12-27T14:26:30.797483+00:00",
        "meta_object_name": "FENGYUN 1C DEB",
        "meta_object_id": "1999-025ABH",
        "meta_epoch": "2025-12-25T05:08:23.271072",
        "meta_mean_motion": 14.34015409,
        "meta_eccentricity": 0.0055061,
        "meta_inclination": 98.8077,
        "meta_ra_of_asc_node": 96.1475,
        "meta_arg_of_pericenter": 346.13,
        "meta_mean_anomaly": 71.6635,
        "meta_ephemeris_type": 0,
        "meta_classification_type": "U",
        "meta_norad_cat_id": 30346,
        "meta_element_set_no": 999,
        "meta_rev_at_epoch": 97592,
        "meta_bstar": 0.0019443,
        "meta_mean_motion_dot": 5.48e-05,
        "meta_mean_motion_ddot": 0,
        "tle_line1": "1 30346U 99025ABH 25359.21415823  .00005480  00000+0  19443-2 0  9990",
        "tle_line2": "2 30346  98.8077  96.1475 0055061 346.1300  71.6635 14.34015409975924"
      },
      "geometry": {
        "type": "Point",
        "coordinates": [
          -73.29647676171817,
          42.35133226859123
        ]
      }
    },
    {
      "type": "Feature",
      "properties": {
        "norad_id": 30347,
        "name": "FENGYUN 1C DEB",
        "group": "fengyun-1c-debris",
        "lat": 51.687732845703074,
        "lon": 14.82478620781813,
        "alt_km": 990.6371523209727,
        "timestamp": "2025-12-27T14:26:30.797516+00:00",
        "meta_object_name": "FENGYUN 1C DEB",
        "meta_object_id": "1999-025ABJ",
        "meta_epoch": "2025-12-26T23:07:26.528736",
        "meta_mean_motion": 13.92775318,
        "meta_eccentricity": 0.0149951,
        "meta_inclination": 98.3766,
        "meta_ra_of_asc_node": 183.4993,
        "meta_arg_of_pericenter": 354.2335,
        "meta_mean_anomaly": 173.625,
        "meta_ephemeris_type": 0,
        "meta_classification_type": "U",
        "meta_norad_cat_id": 30347,
        "meta_element_set_no": 999,
        "meta_rev_at_epoch": 96158,
        "meta_bstar": 0.00020385,
        "meta_mean_motion_dot": 2.51e-06,
        "meta_mean_motion_ddot": 0,
        "tle_line1": "1 30347U 99025ABJ 25360.96350149  .00000251  00000+0  20385-3 0  9993",
        "tle_line2": "2 30347  98.3766 183.4993 0149951 354.2335 173.6250 13.92775318961588"
      },
      "geometry": {
        "type": "Point",
        "coordinates": [
          14.82478620781813,
          51.687732845703074
        ]
      }
    },
    {
      "type": "Feature",
      "properties": {
        "norad_id": 30348,
        "name": "FENGYUN 1C DEB",
        "group": "fengyun-1c-debris",
        "lat": 44.72620421747887,
        "lon": -74.35498059296995,
        "alt_km": 782.5167372209971,
        "timestamp": "2025-12-27T14:26:30.797530+00:00",
        "meta_object_name": "FENGYUN 1C DEB",
        "meta_object_id": "1999-025ABK",
        "meta_epoch": "2025-12-27T05:42:10.545120",
        "meta_mean_motion": 14.35251914,
        "meta_eccentricity": 0.00174458,
        "meta_inclination": 98.8631,
        "meta_ra_of_asc_node": 96.3804,
        "meta_arg_of_pericenter": 328.5958,
        "meta_mean_anomaly": 85.5415,
        "meta_ephemeris_type": 0,
        "meta_classification_type": "U",
        "meta_norad_cat_id": 30348,
        "meta_element_set_no": 999,
        "meta_rev_at_epoch": 97742,
        "meta_bstar": 0.0020783208,
        "meta_mean_motion_dot": 5.917e-05,
        "meta_mean_motion_ddot": 0,
        "tle_line1": "1 30348U 99025ABK 25361.23762205  .00005917  00000+0  20783-2 0  9990",
        "tle_line2": "2 30348  98.8631  96.3804 0017445 328.5958  85.5415 14.35251914977428"
      },
      "geometry": {
        "type": "Point",
        "coordinates": [
          -74.35498059296995,
          44.72620421747887
        ]
      }
    },
    {
      "type": "Feature",
      "properties": {
        "norad_id": 30349,
        "name": "FENGYUN 1C DEB",
        "group": "fengyun-1c-debris",
        "lat": -80.95091879396642,
        "lon": 71.84121618310175,
        "alt_km": 833.2591147756066,
        "timestamp": "2025-12-27T14:26:30.797541+00:00",
        "meta_object_name": "FENGYUN 1C DEB",
        "meta_object_id": "1999-025ABL",
        "meta_epoch": "2025-12-26T10:30:39.851136",
        "meta_mean_motion": 14.1120867,
        "meta_eccentricity": 0.0088764,
        "meta_inclination": 98.586,
        "meta_ra_of_asc_node": 322.2835,
        "meta_arg_of_pericenter": 333.7821,
        "meta_mean_anomaly": 145.1293,
        "meta_ephemeris_type": 0,
        "meta_classification_type": "U",
        "meta_norad_cat_id": 30349,
        "meta_element_set_no": 999,
        "meta_rev_at_epoch": 96424,
        "meta_bstar": 0.0022509,
        "meta_mean_motion_dot": 4.172e-05,
        "meta_mean_motion_ddot": 0,
        "tle_line1": "1 30349U 99025ABL 25360.43796124  .00004172  00000+0  22509-2 0  9999",
        "tle_line2": "2 30349  98.5860 322.2835 0088764 333.7821 145.1293 14.11208670964242"
      },
      "geometry": {
        "type": "Point",
        "coordinates": [
          71.84121618310175,
          -80.95091879396642
        ]
      }
    }
  ]
}